CCSDS_OMM_VERS = 2.0
CREATION_DATE  = 
ORIGINATOR     = 

OBJECT_NAME    = HTV-X1
OBJECT_ID      = 2025-241A
CENTER_NAME    = EARTH
REF_FRAME      = TEME
TIME_SYSTEM    = UTC
MEAN_ELEMENT_THEORY = SGP/SGP4

EPOCH          = 2026-04-03T05:38:32.920800
MEAN_MOTION    = 15.32512226
ECCENTRICITY   = .00072787
INCLINATION    = 51.6362
RA_OF_ASC_NODE = 314.7548
ARG_OF_PERICENTER = 267.5183
MEAN_ANOMALY   = 92.4966

EPHEMERIS_TYPE = 0
CLASSIFICATION_TYPE = U
NORAD_CAT_ID   = 66174
ELEMENT_SET_NO = 999
REV_AT_EPOCH   = 2470
BSTAR          = .16087195E-3
MEAN_MOTION_DOT = .476E-4
MEAN_MOTION_DDOT = 0

CCSDS_OMM_VERS = 2.0
CREATION_DATE  = 
ORIGINATOR     = 

OBJECT_NAME    = SZ-21 MODULE
OBJECT_ID      = 2025-246C
CENTER_NAME    = EARTH
REF_FRAME      = TEME
TIME_SYSTEM    = UTC
MEAN_ELEMENT_THEORY = SGP/SGP4

EPOCH          = 2026-04-03T06:04:09.839424
MEAN_MOTION    = 15.70567905
ECCENTRICITY   = .00028919
INCLINATION    = 41.4748
RA_OF_ASC_NODE = 51.9348
ARG_OF_PERICENTER = 225.3271
MEAN_ANOMALY   = 134.7336

EPHEMERIS_TYPE = 0
CLASSIFICATION_TYPE = U
NORAD_CAT_ID   = 66515
ELEMENT_SET_NO = 999
REV_AT_EPOCH   = 2193
BSTAR          = .47388464E-3
MEAN_MOTION_DOT = .60256E-3
MEAN_MOTION_DDOT = 0

CCSDS_OMM_VERS = 2.0
CREATION_DATE  = 
ORIGINATOR     = 

OBJECT_NAME    = SHENZHOU-22
OBJECT_ID      = 2025-272A
CENTER_NAME    = EARTH
REF_FRAME      = TEME
TIME_SYSTEM    = UTC
MEAN_ELEMENT_THEORY = SGP/SGP4

EPOCH          = 2026-04-03T06:41:02.129568
MEAN_MOTION    = 15.61924300
ECCENTRICITY   = .00037723
INCLINATION    = 41.4675
RA_OF_ASC_NODE = 58.4057
ARG_OF_PERICENTER = 112.9182
MEAN_ANOMALY   = 247.2056

EPHEMERIS_TYPE = 0
CLASSIFICATION_TYPE = U
NORAD_CAT_ID   = 66645
ELEMENT_SET_NO = 999
REV_AT_EPOCH   = 28115
BSTAR          = .3541195E-3
MEAN_MOTION_DOT = .31513E-3
MEAN_MOTION_DDOT = 0

CCSDS_OMM_VERS = 2.0
CREATION_DATE  = 
ORIGINATOR     = 

OBJECT_NAME    = SOYUZ-MS 28
OBJECT_ID      = 2025-275A
CENTER_NAME    = EARTH
REF_FRAME      = TEME
TIME_SYSTEM    = UTC
MEAN_ELEMENT_THEORY = SGP/SGP4

EPOCH          = 2026-04-03T02:25:58.213344
MEAN_MOTION    = 15.48735493
ECCENTRICITY   = .00062367
INCLINATION    = 51.6327
RA_OF_ASC_NODE = 311.6710
ARG_OF_PERICENTER = 265.7481
MEAN_ANOMALY   = 94.2795

EPHEMERIS_TYPE = 0
CLASSIFICATION_TYPE = U
NORAD_CAT_ID   = 66664
ELEMENT_SET_NO = 999
REV_AT_EPOCH   = 55986
BSTAR          = .22784187E-3
MEAN_MOTION_DOT = .12012E-3
MEAN_MOTION_DDOT = 0

CCSDS_OMM_VERS = 2.0
CREATION_DATE  = 
ORIGINATOR     = 

OBJECT_NAME    = DUPLEX
OBJECT_ID      = 1998-067XS
CENTER_NAME    = EARTH
REF_FRAME      = TEME
TIME_SYSTEM    = UTC
MEAN_ELEMENT_THEORY = SGP/SGP4

EPOCH          = 2026-04-03T04:02:04.640064
MEAN_MOTION    = 15.57885529
ECCENTRICITY   = .00031257
INCLINATION    = 51.6284
RA_OF_ASC_NODE = 306.8678
ARG_OF_PERICENTER = 227.1733
MEAN_ANOMALY   = 132.8996

EPHEMERIS_TYPE = 0
CLASSIFICATION_TYPE = U
NORAD_CAT_ID   = 66906
ELEMENT_SET_NO = 999
REV_AT_EPOCH   = 1894
BSTAR          = .57537076E-3
MEAN_MOTION_DOT = .43515E-3
MEAN_MOTION_DDOT = 0

CCSDS_OMM_VERS = 2.0
CREATION_DATE  = 
ORIGINATOR     = 

OBJECT_NAME    = ISS OBJECT XT
OBJECT_ID      = 1998-067XT
CENTER_NAME    = EARTH
REF_FRAME      = TEME
TIME_SYSTEM    = UTC
MEAN_ELEMENT_THEORY = SGP/SGP4

EPOCH          = 2026-04-03T06:49:33.278880
MEAN_MOTION    = 15.79389654
ECCENTRICITY   = .00069383
INCLINATION    = 51.6220
RA_OF_ASC_NODE = 299.3474
ARG_OF_PERICENTER = 241.0922
MEAN_ANOMALY   = 118.9383

EPHEMERIS_TYPE = 0
CLASSIFICATION_TYPE = U
NORAD_CAT_ID   = 66907
ELEMENT_SET_NO = 999
REV_AT_EPOCH   = 1905
BSTAR          = .18784409E-2
MEAN_MOTION_DOT = .361691E-2
MEAN_MOTION_DDOT = 0

CCSDS_OMM_VERS = 2.0
CREATION_DATE  = 
ORIGINATOR     = 

OBJECT_NAME    = ISS OBJECT XU
OBJECT_ID      = 1998-067XU
CENTER_NAME    = EARTH
REF_FRAME      = TEME
TIME_SYSTEM    = UTC
MEAN_ELEMENT_THEORY = SGP/SGP4

EPOCH          = 2026-04-03T06:42:40.775904
MEAN_MOTION    = 15.79720595
ECCENTRICITY   = .00070957
INCLINATION    = 51.6221
RA_OF_ASC_NODE = 299.3108
ARG_OF_PERICENTER = 240.6488
MEAN_ANOMALY   = 119.3805

EPHEMERIS_TYPE = 0
CLASSIFICATION_TYPE = U
NORAD_CAT_ID   = 66908
ELEMENT_SET_NO = 999
REV_AT_EPOCH   = 1905
BSTAR          = .19241851E-2
MEAN_MOTION_DOT = .376814E-2
MEAN_MOTION_DDOT = 0

CCSDS_OMM_VERS = 2.0
CREATION_DATE  = 
ORIGINATOR     = 

OBJECT_NAME    = SILVERSAT
OBJECT_ID      = 1998-067XV
CENTER_NAME    = EARTH
REF_FRAME      = TEME
TIME_SYSTEM    = UTC
MEAN_ELEMENT_THEORY = SGP/SGP4

EPOCH          = 2026-04-02T13:59:38.023008
MEAN_MOTION    = 15.85656241
ECCENTRICITY   = .00084842
INCLINATION    = 51.6187
RA_OF_ASC_NODE = 301.3924
ARG_OF_PERICENTER = 244.3474
MEAN_ANOMALY   = 115.6654

EPHEMERIS_TYPE = 0
CLASSIFICATION_TYPE = U
NORAD_CAT_ID   = 66909
ELEMENT_SET_NO = 999
REV_AT_EPOCH   = 1896
BSTAR          = .18698813E-2
MEAN_MOTION_DOT = .490335E-2
MEAN_MOTION_DDOT = 0

CCSDS_OMM_VERS = 2.0
CREATION_DATE  = 
ORIGINATOR     = 

OBJECT_NAME    = ISS OBJECT XW
OBJECT_ID      = 1998-067XW
CENTER_NAME    = EARTH
REF_FRAME      = TEME
TIME_SYSTEM    = UTC
MEAN_ELEMENT_THEORY = SGP/SGP4

EPOCH          = 2026-04-03T07:08:04.531488
MEAN_MOTION    = 15.77493204
ECCENTRICITY   = .00072905
INCLINATION    = 51.6203
RA_OF_ASC_NODE = 299.4256
ARG_OF_PERICENTER = 236.8734
MEAN_ANOMALY   = 123.1567

EPHEMERIS_TYPE = 0
CLASSIFICATION_TYPE = U
NORAD_CAT_ID   = 66910
ELEMENT_SET_NO = 999
REV_AT_EPOCH   = 1905
BSTAR          = .1727107E-2
MEAN_MOTION_DOT = .303275E-2
MEAN_MOTION_DDOT = 0

CCSDS_OMM_VERS = 2.0
CREATION_DATE  = 
ORIGINATOR     = 

OBJECT_NAME    = ISS OBJECT XX
OBJECT_ID      = 1998-067XX
CENTER_NAME    = EARTH
REF_FRAME      = TEME
TIME_SYSTEM    = UTC
MEAN_ELEMENT_THEORY = SGP/SGP4

EPOCH          = 2026-04-02T22:34:23.452608
MEAN_MOTION    = 15.95513790
ECCENTRICITY   = .00106649
INCLINATION    = 51.6159
RA_OF_ASC_NODE = 297.7328
ARG_OF_PERICENTER = 251.8408
MEAN_ANOMALY   = 108.1439

EPHEMERIS_TYPE = 0
CLASSIFICATION_TYPE = U
NORAD_CAT_ID   = 66911
ELEMENT_SET_NO = 999
REV_AT_EPOCH   = 1903
BSTAR          = .27184661E-2
MEAN_MOTION_DOT = .1110416E-1
MEAN_MOTION_DDOT = .58671647E-3

CCSDS_OMM_VERS = 2.0
CREATION_DATE  = 
ORIGINATOR     = 

OBJECT_NAME    = ISS OBJECT XY
OBJECT_ID      = 1998-067XY
CENTER_NAME    = EARTH
REF_FRAME      = TEME
TIME_SYSTEM    = UTC
MEAN_ELEMENT_THEORY = SGP/SGP4

EPOCH          = 2026-04-03T06:35:38.536512
MEAN_MOTION    = 15.69079416
ECCENTRICITY   = .00047952
INCLINATION    = 51.6253
RA_OF_ASC_NODE = 302.3137
ARG_OF_PERICENTER = 234.0576
MEAN_ANOMALY   = 125.9976

EPHEMERIS_TYPE = 0
CLASSIFICATION_TYPE = U
NORAD_CAT_ID   = 66912
ELEMENT_SET_NO = 999
REV_AT_EPOCH   = 1900
BSTAR          = .13566212E-2
MEAN_MOTION_DOT = .163051E-2
MEAN_MOTION_DDOT = 0

CCSDS_OMM_VERS = 2.0
CREATION_DATE  = 
ORIGINATOR     = 

OBJECT_NAME    = KNACKSAT-2
OBJECT_ID      = 1998-067XZ
CENTER_NAME    = EARTH
REF_FRAME      = TEME
TIME_SYSTEM    = UTC
MEAN_ELEMENT_THEORY = SGP/SGP4

EPOCH          = 2026-04-02T22:12:24.594624
MEAN_MOTION    = 15.53933498
ECCENTRICITY   = .00104217
INCLINATION    = 51.6310
RA_OF_ASC_NODE = 311.2469
ARG_OF_PERICENTER = 275.3642
MEAN_ANOMALY   = 84.6159

EPHEMERIS_TYPE = 0
CLASSIFICATION_TYPE = U
NORAD_CAT_ID   = 67683
ELEMENT_SET_NO = 999
REV_AT_EPOCH   = 855
BSTAR          = .1026702E-2
MEAN_MOTION_DOT = .67722E-3
MEAN_MOTION_DDOT = 0

